{"type": "FeatureCollection", "features": [ {"type": "Feature", "properties": {"norad_id": 66949, "name": "STARLINK-36096", "group": "last-30-days", "lat": -26.44835271467256, "lon": -168.66780139071983, "alt_km": 385.2403110084997, "timestamp": "2025-12-24T22:42:20.747642+00:00", "meta": {"OBJECT_NAME": "STARLINK-36096", "OBJECT_ID": "2025-286AA", "EPOCH": "2025-12-24T06:00:02.000160", "MEAN_MOTION": 15.65329252, "ECCENTRICITY": 0.00012135, "INCLINATION": 53.1594, "RA_OF_ASC_NODE": 352.8354, "ARG_OF_PERICENTER": 87.8009, "MEAN_ANOMALY": 165.1799, "EPHEMERIS_TYPE": 0, "CLASSIFICATION_TYPE": "U", "NORAD_CAT_ID": 66949, "ELEMENT_SET_NO": 999, "REV_AT_EPOCH": 384, "BSTAR": -0.022889518, "MEAN_MOTION_DOT": -0.02036857, "MEAN_MOTION_DDOT": 0}, "tle": {"line1": "1 66949U 25286AA  25358.25002315 -.02036857  00000+0 -22890-1 0  9992", "line2": "2 66949  53.1594 352.8354 0001213  87.8009 165.1799 15.65329252  3845"}}, "geometry": {"type": "Point", "coordinates": [-168.66780139071983, -26.44835271467256]}}, {"type": "Feature", "properties": {"norad_id": 66950, "name": "STARLINK-36111", "group": "last-30-days", "lat": -29.26966112647043, "lon": -165.726482949268, "alt_km": 385.4689319936997, "timestamp": "2025-12-24T22:42:20.747653+00:00", "meta": {"OBJECT_NAME": "STARLINK-36111", "OBJECT_ID": "2025-286AB", "EPOCH": "2025-12-24T06:00:02.000160", "MEAN_MOTION": 15.65322697, "ECCENTRICITY": 0.00013586, "INCLINATION": 53.1594, "RA_OF_ASC_NODE": 352.8272, "ARG_OF_PERICENTER": 91.5226, "MEAN_ANOMALY": 165.2904, "EPHEMERIS_TYPE": 0, "CLASSIFICATION_TYPE": "U", "NORAD_CAT_ID": 66950, "ELEMENT_SET_NO": 999, "REV_AT_EPOCH": 384, "BSTAR": -0.022722332, "MEAN_MOTION_DOT": -0.02023462, "MEAN_MOTION_DDOT": 0}, "tle": {"line1": "1 66950U 25286AB  25358.25002315 -.02023462  00000+0 -22722-1 0  9996", "line2": "2 66950  53.1594 352.8272 0001358  91.5226 165.2904 15.65322697  3844"}}, "geometry": {"type": "Point", "coordinates": [-165.726482949268, -29.26966112647043]}}, {"type": "Feature", "properties": {"norad_id": 66951, "name": "STARLINK-35999", "group": "last-30-days", "lat": -30.644093374637208, "lon": -164.2081383957254, "alt_km": 385.6046432550611, "timestamp": "2025-12-24T22:42:20.747666+00:00", "meta": {"OBJECT_NAME": "STARLINK-35999", "OBJECT_ID": "2025-286AC", "EPOCH": "2025-12-24T06:00:02.000160", "MEAN_MOTION": 15.65327588, "ECCENTRICITY": 0.00013421, "INCLINATION": 53.1595, "RA_OF_ASC_NODE": 352.8231, "ARG_OF_PERICENTER": 93.3673, "MEAN_ANOMALY": 165.3661, "EPHEMERIS_TYPE": 0, "CLASSIFICATION_TYPE": "U", "NORAD_CAT_ID": 66951, "ELEMENT_SET_NO": 999, "REV_AT_EPOCH": 384, "BSTAR": -0.022872516, "MEAN_MOTION_DOT": -0.02035514, "MEAN_MOTION_DDOT": 0}, "tle": {"line1": "1 66951U 25286AC  25358.25002315 -.02035514  00000+0 -22873-1 0  9995", "line2": "2 66951  53.1595 352.8231 0001342  93.3673 165.3661 15.65327588  3845"}}, "geometry": {"type": "Point", "coordinates": [-164.2081383957254, -30.644093374637208]}}, {"type": "Feature", "properties": {"norad_id": 66952, "name": "STARLINK-36122", "group": "last-30-days", "lat": -27.86669926995106, "lon": -167.21660139097392, "alt_km": 385.2992842528138, "timestamp": "2025-12-24T22:42:20.747676+00:00", "meta": {"OBJECT_NAME": "STARLINK-36122", "OBJECT_ID": "2025-286AD", "EPOCH": "2025-12-24T06:00:02.000160", "MEAN_MOTION": 15.65331954, "ECCENTRICITY": 0.00013004, "INCLINATION": 53.1594, "RA_OF_ASC_NODE": 352.8312, "ARG_OF_PERICENTER": 98.2079, "MEAN_ANOMALY": 156.6853, "EPHEMERIS_TYPE": 0, "CLASSIFICATION_TYPE": "U", "NORAD_CAT_ID": 66952, "ELEMENT_SET_NO": 999, "REV_AT_EPOCH": 384, "BSTAR": -0.02287649, "MEAN_MOTION_DOT": -0.02036105, "MEAN_MOTION_DDOT": 0}, "tle": {"line1": "1 66952U 25286AD  25358.25002315 -.02036105  00000+0 -22876-1 0  9996", "line2": "2 66952  53.1594 352.8312 0001300  98.2079 156.6853 15.65331954  3841"}}, "geometry": {"type": "Point", "coordinates": [-167.21660139097392, -27.86669926995106]}}, {"type": "Feature", "properties": {"norad_id": 66953, "name": "HULIANWANG DIGUI-114", "group": "last-30-days", "lat": 63.23494854223111, "lon": 154.7407498608817, "alt_km": 1003.2032232262773, "timestamp": "2025-12-24T22:42:20.747686+00:00", "meta": {"OBJECT_NAME": "HULIANWANG DIGUI-114", "OBJECT_ID": "2025-287A", "EPOCH": "2025-12-20T09:09:14.655168", "MEAN_MOTION": 13.66161866, "ECCENTRICITY": 0.00096738, "INCLINATION": 86.496, "RA_OF_ASC_NODE": 343.3747, "ARG_OF_PERICENTER": 185.0352, "MEAN_ANOMALY": 175.071, "EPHEMERIS_TYPE": 0, "CLASSIFICATION_TYPE": "U", "NORAD_CAT_ID": 66953, "ELEMENT_SET_NO": 999, "REV_AT_EPOCH": 157, "BSTAR": 3.033618e-06, "MEAN_MOTION_DOT": 1.9e-07, "MEAN_MOTION_DDOT": 0}, "tle": {"line1": "1 66953U 25287A   25354.38141962  .00000019  00000+0  30336-5 0  9995", "line2": "2 66953  86.4960 343.3747 0009673 185.0352 175.0710 13.66161866  1572"}}, "geometry": {"type": "Point", "coordinates": [154.7407498608817, 63.23494854223111]}}, {"type": "Feature", "properties": {"norad_id": 66954, "name": "HULIANWANG DIGUI-115", "group": "last-30-days", "lat": 50.56183220629717, "lon": 157.44885875513395, "alt_km": 1001.8186945431635, "timestamp": "2025-12-24T22:42:20.747698+00:00", "meta": {"OBJECT_NAME": "HULIANWANG DIGUI-115", "OBJECT_ID": "2025-287B", "EPOCH": "2025-12-20T14:23:56.755680", "MEAN_MOTION": 13.66603826, "ECCENTRICITY": 0.00094984, "INCLINATION": 86.4975, "RA_OF_ASC_NODE": 343.2967, "ARG_OF_PERICENTER": 182.0064, "MEAN_ANOMALY": 178.1058, "EPHEMERIS_TYPE": 0, "CLASSIFICATION_TYPE": "U", "NORAD_CAT_ID": 66954, "ELEMENT_SET_NO": 999, "REV_AT_EPOCH": 160, "BSTAR": -9.79328e-07, "MEAN_MOTION_DOT": 1.6e-07, "MEAN_MOTION_DDOT": 0}, "tle": {"line1": "1 66954U 25287B   25354.59996245  .00000016  00000+0 -97933-6 0  9996", "line2": "2 66954  86.4975 343.2967 0009498 182.0064 178.1058 13.66603826  1604"}}, "geometry": {"type": "Point", "coordinates": [157.44885875513395, 50.56183220629717]}}, {"type": "Feature", "properties": {"norad_id": 66955, "name": "HULIANWANG DIGUI-116", "group": "last-30-days", "lat": 37.865852863864276, "lon": 158.96652929974098, "alt_km": 1001.5467258054405, "timestamp": "2025-12-24T22:42:20.747708+00:00", "meta": {"OBJECT_NAME": "HULIANWANG DIGUI-116", "OBJECT_ID": "2025-287C", "EPOCH": "2025-12-20T16:07:29.631072", "MEAN_MOTION": 13.67009251, "ECCENTRICITY": 0.00086607, "INCLINATION": 86.4918, "RA_OF_ASC_NODE": 343.2556, "ARG_OF_PERICENTER": 174.268, "MEAN_ANOMALY": 185.8579, "EPHEMERIS_TYPE": 0, "CLASSIFICATION_TYPE": "U", "NORAD_CAT_ID": 66955, "ELEMENT_SET_NO": 999, "REV_AT_EPOCH": 161, "BSTAR": 0.00012368885, "MEAN_MOTION_DOT": 1.2e-06, "MEAN_MOTION_DDOT": 0}, "tle": {"line1": "1 66955U 25287C   25354.67187073  .00000120  00000+0  12369-3 0  9999", "line2": "2 66955  86.4918 343.2556 0008660 174.2680 185.8579 13.67009251  1610"}}, "geometry": {"type": "Point", "coordinates": [158.96652929974098, 37.865852863864276]}}, {"type": "Feature", "properties": {"norad_id": 66956, "name": "HULIANWANG DIGUI-117", "group": "last-30-days", "lat": 17.020089796855213, "lon": 160.63747748433713, "alt_km": 1002.449464394369, "timestamp": "2025-12-24T22:42:20.747718+00:00", "meta": {"OBJECT_NAME": "HULIANWANG DIGUI-117", "OBJECT_ID": "2025-287D", "EPOCH": "2025-12-18T14:55:12.079776", "MEAN_MOTION": 13.67770338, "ECCENTRICITY": 0.00076767, "INCLINATION": 86.4971, "RA_OF_ASC_NODE": 344.0126, "ARG_OF_PERICENTER": 176.3616, "MEAN_ANOMALY": 183.76, "EPHEMERIS_TYPE": 0, "CLASSIFICATION_TYPE": "U", "NORAD_CAT_ID": 66956, "ELEMENT_SET_NO": 999, "REV_AT_EPOCH": 133, "BSTAR": 1.0922436e-05, "MEAN_MOTION_DOT": 2.6e-07, "MEAN_MOTION_DDOT": 0}, "tle": {"line1": "1 66956U 25287D   25352.62166759  .00000026  00000+0  10922-4 0  9990", "line2": "2 66956  86.4971 344.0126 0007676 176.3616 183.7600 13.67770338  1332"}}, "geometry": {"type": "Point", "coordinates": [160.63747748433713, 17.020089796855213]}}, {"type": "Feature", "properties": {"norad_id": 66957, "name": "HULIANWANG DIGUI-118", "group": "last-30-days", "lat": 16.221800378392743, "lon": 160.68534108046734, "alt_km": 1005.1229144779354, "timestamp": "2025-12-24T22:42:20.747728+00:00", "meta": {"OBJECT_NAME": "HULIANWANG DIGUI-118", "OBJECT_ID": "2025-287E", "EPOCH": "2025-12-21T00:50:13.849728", "MEAN_MOTION": 13.6751011, "ECCENTRICITY": 0.00054729, "INCLINATION": 86.4946, "RA_OF_ASC_NODE": 343.1304, "ARG_OF_PERICENTER": 170.9065, "MEAN_ANOMALY": 189.2194, "EPHEMERIS_TYPE": 0, "CLASSIFICATION_TYPE": "U", "NORAD_CAT_ID": 66957, "ELEMENT_SET_NO": 999, "REV_AT_EPOCH": 166, "BSTAR": 0.00013223305, "MEAN_MOTION_DOT": 1.28e-06, "MEAN_MOTION_DDOT": 0}, "tle": {"line1": "1 66957U 25287E   25355.03488252  .00000128  00000+0  13223-3 0  9993", "line2": "2 66957  86.4946 343.1304 0005472 170.9065 189.2194 13.67510110  1668"}}, "geometry": {"type": "Point", "coordinates": [160.68534108046734, 16.221800378392743]}}, {"type": "Feature", "properties": {"norad_id": 66958, "name": "CZ-6A R/B", "group": "last-30-days", "lat": -65.06551726700172, "lon": 169.01066306186001, "alt_km": 996.8603282563236, "timestamp": "2025-12-24T22:42:20.747741+00:00", "meta": {"OBJECT_NAME": "CZ-6A R/B", "OBJECT_ID": "2025-287F", "EPOCH": "2025-12-24T06:02:41.158464", "MEAN_MOTION": 13.94921326, "ECCENTRICITY": 0.01071477, "INCLINATION": 86.5064, "RA_OF_ASC_NODE": 341.7241, "ARG_OF_PERICENTER": 67.5545, "MEAN_ANOMALY": 293.6935, "EPHEMERIS_TYPE": 0, "CLASSIFICATION_TYPE": "U", "NORAD_CAT_ID": 66958, "ELEMENT_SET_NO": 999, "REV_AT_EPOCH": 214, "BSTAR": 3.2513032e-05, "MEAN_MOTION_DOT": 6.5e-07, "MEAN_MOTION_DDOT": 0}, "tle": {"line1": "1 66958U 25287F   25358.25186526  .00000065  00000+0  32513-4 0  9994", "line2": "2 66958  86.5064 341.7241 0107147  67.5545 293.6935 13.94921326  2143"}}, "geometry": {"type": "Point", "coordinates": [169.01066306186001, -65.06551726700172]}}]}